{
  "type": "FeatureCollection",
  "features": [
    {
      "type": "Feature",
      "geometry": {
        "type": "Point",
        "coordinates": [
          127.129418,
          37.450806
        ]
      },
      "properties": {
        "no": "1",
        "class": "Campus",
        "id": "Camp001",
        "name": "가천대_글로벌캠퍼스",
        "oYear": "2012",
        "hq": "소재",
        "aDivision": "수도권",
        "aUnit": "성남시"
      }
    },
    {
      "type": "Feature",
      "geometry": {
        "type": "Point",
        "coordinates": [
          126.803,
          37.486962
        ]
      },
      "properties": {
        "no": "2",
        "class": "Campus",
        "id": "Camp002",
        "name": "가톨릭대_성심교정",
        "oYear": "1955",
        "hq": "소재",
        "aDivision": "수도권",
        "aUnit": "부천시"
      }
    },
    {
      "type": "Feature",
      "geometry": {
        "type": "Point",
        "coordinates": [
          127.132419,
          37.27593
        ]
      },
      "properties": {
        "no": "3",
        "class": "Campus",
        "id": "Camp003",
        "name": "강남대_본교",
        "oYear": "1980",
        "hq": "소재",
        "aDivision": "수도권",
        "aUnit": "용인시"
      }
    },
    {
      "type": "Feature",
      "geometry": {
        "type": "Point",
        "coordinates": [
          127.745044,
          37.869065
        ]
      },
      "properties": {
        "no": "4",
        "class": "Campus",
        "id": "Camp004",
        "name": "강원대_춘천캠퍼스",
        "oYear": "1947",
        "hq": "소재",
        "aDivision": "강원권",
        "aUnit": "춘천시"
      }
    },
    {
      "type": "Feature",
      "geometry": {
        "type": "Point",
        "coordinates": [
          127.075959,
          37.542429
        ]
      },
      "properties": {
        "no": "5",
        "class": "Campus",
        "id": "Camp005",
        "name": "건국대_서울캠퍼스",
        "oYear": "1956",
        "hq": "소재",
        "aDivision": "수도권",
        "aUnit": "서울"
      }
    },
    {
      "type": "Feature",
      "geometry": {
        "type": "Point",
        "coordinates": [
          127.035827,
          37.300537
        ]
      },
      "properties": {
        "no": "6",
        "class": "Campus",
        "id": "Camp006",
        "name": "경기대_수원캠퍼스",
        "oYear": "1979",
        "hq": "소재",
        "aDivision": "수도권",
        "aUnit": "수원시"
      }
    },
    {
      "type": "Feature",
      "geometry": {
        "type": "Point",
        "coordinates": [
          128.6103,
          35.888914
        ]
      },
      "properties": {
        "no": "7",
        "class": "Campus",
        "id": "Camp007",
        "name": "경북대_대구캠퍼스",
        "oYear": "1952",
        "hq": "소재",
        "aDivision": "영남권",
        "aUnit": "대구"
      }
    },
    {
      "type": "Feature",
      "geometry": {
        "type": "Point",
        "coordinates": [
          128.101068,
          35.153053
        ]
      },
      "properties": {
        "no": "8",
        "class": "Campus",
        "id": "Camp008",
        "name": "경상국립대_가좌캠퍼스",
        "oYear": "1983",
        "hq": "소재",
        "aDivision": "영남권",
        "aUnit": "진주시"
      }
    },
    {
      "type": "Feature",
      "geometry": {
        "type": "Point",
        "coordinates": [
          129.098518,
          35.139859
        ]
      },
      "properties": {
        "no": "9",
        "class": "Campus",
        "id": "Camp009",
        "name": "경성대_본교",
        "oYear": "1973",
        "hq": "소재",
        "aDivision": "영남권",
        "aUnit": "부산"
      }
    },
    {
      "type": "Feature",
      "geometry": {
        "type": "Point",
        "coordinates": [
          127.080085,
          37.243021
        ]
      },
      "properties": {
        "no": "10",
        "class": "Campus",
        "id": "Camp010",
        "name": "경희대_국제캠퍼스",
        "oYear": "1979",
        "hq": "부재",
        "aDivision": "수도권",
        "aUnit": "용인시"
      }
    },
    {
      "type": "Feature",
      "geometry": {
        "type": "Point",
        "coordinates": [
          128.488906,
          35.855979
        ]
      },
      "properties": {
        "no": "11",
        "class": "Campus",
        "id": "Camp011",
        "name": "계명대_성서캠퍼스",
        "oYear": "1982",
        "hq": "소재",
        "aDivision": "영남권",
        "aUnit": "대구"
      }
    },
    {
      "type": "Feature",
      "geometry": {
        "type": "Point",
        "coordinates": [
          127.032477,
          37.589439
        ]
      },
      "properties": {
        "no": "12",
        "class": "Campus",
        "id": "Camp012",
        "name": "고려대_서울캠퍼스",
        "oYear": "1934",
        "hq": "소재",
        "aDivision": "수도권",
        "aUnit": "서울"
      }
    },
    {
      "type": "Feature",
      "geometry": {
        "type": "Point",
        "coordinates": [
          127.286457,
          36.610931
        ]
      },
      "properties": {
        "no": "13",
        "class": "Campus",
        "id": "Camp013",
        "name": "고려대_세종캠퍼스",
        "oYear": "1980",
        "hq": "부재",
        "aDivision": "충청권",
        "aUnit": "세종"
      }
    },
    {
      "type": "Feature",
      "geometry": {
        "type": "Point",
        "coordinates": [
          128.869085,
          37.770173
        ]
      },
      "properties": {
        "no": "14",
        "class": "Campus",
        "id": "Camp014",
        "name": "국립강릉원주대_강릉캠퍼스",
        "oYear": "1980",
        "hq": "소재",
        "aDivision": "강원권",
        "aUnit": "강릉시"
      }
    },
    {
      "type": "Feature",
      "geometry": {
        "type": "Point",
        "coordinates": [
          127.14078,
          36.46905
        ]
      },
      "properties": {
        "no": "15",
        "class": "Campus",
        "id": "Camp015",
        "name": "국립공주대_공주캠퍼스",
        "oYear": "1969",
        "hq": "소재",
        "aDivision": "충청권",
        "aUnit": "공주시"
      }
    },
    {
      "type": "Feature",
      "geometry": {
        "type": "Point",
        "coordinates": [
          126.681475,
          35.947083
        ]
      },
      "properties": {
        "no": "16",
        "class": "Campus",
        "id": "Camp016",
        "name": "국립군산대_미룡캠퍼스",
        "oYear": "1983",
        "hq": "소재",
        "aDivision": "호남권",
        "aUnit": "군산시"
      }
    },
    {
      "type": "Feature",
      "geometry": {
        "type": "Point",
        "coordinates": [
          126.436177,
          34.910382
        ]
      },
      "properties": {
        "no": "17",
        "class": "Campus",
        "id": "Camp017",
        "name": "국립목포대_도림캠퍼스",
        "oYear": "1982",
        "hq": "소재",
        "aDivision": "호남권",
        "aUnit": "무안군"
      }
    },
    {
      "type": "Feature",
      "geometry": {
        "type": "Point",
        "coordinates": [
          129.103131,
          35.134014
        ]
      },
      "properties": {
        "no": "18",
        "class": "Campus",
        "id": "Camp018",
        "name": "국립부경대_대연캠퍼스",
        "oYear": "1996",
        "hq": "소재",
        "aDivision": "영남권",
        "aUnit": "부산"
      }
    },
    {
      "type": "Feature",
      "geometry": {
        "type": "Point",
        "coordinates": [
          127.480225,
          34.968764
        ]
      },
      "properties": {
        "no": "19",
        "class": "Campus",
        "id": "Camp019",
        "name": "국립순천대_본교",
        "oYear": "1935",
        "hq": "소재",
        "aDivision": "호남권",
        "aUnit": "순천시"
      }
    },
    {
      "type": "Feature",
      "geometry": {
        "type": "Point",
        "coordinates": [
          128.691959,
          35.245593
        ]
      },
      "properties": {
        "no": "20",
        "class": "Campus",
        "id": "Camp020",
        "name": "국립창원대_창원캠퍼스",
        "oYear": "1983",
        "hq": "소재",
        "aDivision": "영남권",
        "aUnit": "창원시"
      }
    },
    {
      "type": "Feature",
      "geometry": {
        "type": "Point",
        "coordinates": [
          127.301072,
          36.350921
        ]
      },
      "properties": {
        "no": "21",
        "class": "Campus",
        "id": "Camp021",
        "name": "국립한밭대_유성덕명캠퍼스",
        "oYear": "1994",
        "hq": "소재",
        "aDivision": "충청권",
        "aUnit": "대전"
      }
    },
    {
      "type": "Feature",
      "geometry": {
        "type": "Point",
        "coordinates": [
          126.997288,
          37.610875
        ]
      },
      "properties": {
        "no": "22",
        "class": "Campus",
        "id": "Camp022",
        "name": "국민대_본교",
        "oYear": "1971",
        "hq": "소재",
        "aDivision": "수도권",
        "aUnit": "서울"
      }
    },
    {
      "type": "Feature",
      "geometry": {
        "type": "Point",
        "coordinates": [
          127.166614,
          36.834635
        ]
      },
      "properties": {
        "no": "23",
        "class": "Campus",
        "id": "Camp023",
        "name": "단국대_천안캠퍼스",
        "oYear": "1978",
        "hq": "부재",
        "aDivision": "충청권",
        "aUnit": "천안시"
      }
    },
    {
      "type": "Feature",
      "geometry": {
        "type": "Point",
        "coordinates": [
          127.156652,
          37.871415
        ]
      },
      "properties": {
        "no": "24",
        "class": "Campus",
        "id": "Camp024",
        "name": "대진대_본교",
        "oYear": "1992",
        "hq": "소재",
        "aDivision": "수도권",
        "aUnit": "포천시"
      }
    },
    {
      "type": "Feature",
      "geometry": {
        "type": "Point",
        "coordinates": [
          127.016508,
          37.651315
        ]
      },
      "properties": {
        "no": "25",
        "class": "Campus",
        "id": "Camp025",
        "name": "덕성여자대_쌍문캠퍼스",
        "oYear": "1979",
        "hq": "소재",
        "aDivision": "수도권",
        "aUnit": "서울"
      }
    },
    {
      "type": "Feature",
      "geometry": {
        "type": "Point",
        "coordinates": [
          127.000189,
          37.558313
        ]
      },
      "properties": {
        "no": "26",
        "class": "Campus",
        "id": "Camp026",
        "name": "동국대_서울캠퍼스",
        "oYear": "1947",
        "hq": "소재",
        "aDivision": "수도권",
        "aUnit": "서울"
      }
    },
    {
      "type": "Feature",
      "geometry": {
        "type": "Point",
        "coordinates": [
          129.195102,
          35.862283
        ]
      },
      "properties": {
        "no": "27",
        "class": "Campus",
        "id": "Camp027",
        "name": "동국대_WISE캠퍼스",
        "oYear": "1978",
        "hq": "부재",
        "aDivision": "영남권",
        "aUnit": "경주시"
      }
    },
    {
      "type": "Feature",
      "geometry": {
        "type": "Point",
        "coordinates": [
          127.041834,
          37.606376
        ]
      },
      "properties": {
        "no": "28",
        "class": "Campus",
        "id": "Camp028",
        "name": "동덕여자대_본교",
        "oYear": "1967",
        "hq": "소재",
        "aDivision": "수도권",
        "aUnit": "서울"
      }
    },
    {
      "type": "Feature",
      "geometry": {
        "type": "Point",
        "coordinates": [
          129.007021,
          35.146117
        ]
      },
      "properties": {
        "no": "29",
        "class": "Campus",
        "id": "Camp029",
        "name": "동서대_주례캠퍼스",
        "oYear": "1992",
        "hq": "소재",
        "aDivision": "영남권",
        "aUnit": "부산"
      }
    },
    {
      "type": "Feature",
      "geometry": {
        "type": "Point",
        "coordinates": [
          129.018843,
          35.104791
        ]
      },
      "properties": {
        "no": "30",
        "class": "Campus",
        "id": "Camp030",
        "name": "동아대_부민캠퍼스",
        "oYear": "2003",
        "hq": "부재",
        "aDivision": "영남권",
        "aUnit": "부산"
      }
    },
    {
      "type": "Feature",
      "geometry": {
        "type": "Point",
        "coordinates": [
          129.033534,
          35.141514
        ]
      },
      "properties": {
        "no": "31",
        "class": "Campus",
        "id": "Camp031",
        "name": "동의대_가야캠퍼스",
        "oYear": "1977",
        "hq": "소재",
        "aDivision": "영남권",
        "aUnit": "부산"
      }
    },
    {
      "type": "Feature",
      "geometry": {
        "type": "Point",
        "coordinates": [
          126.922589,
          37.580247
        ]
      },
      "properties": {
        "no": "32",
        "class": "Campus",
        "id": "Camp032",
        "name": "명지대_인문캠퍼스",
        "oYear": "1969",
        "hq": "소재",
        "aDivision": "수도권",
        "aUnit": "서울"
      }
    },
    {
      "type": "Feature",
      "geometry": {
        "type": "Point",
        "coordinates": [
          129.08046,
          35.234563
        ]
      },
      "properties": {
        "no": "33",
        "class": "Campus",
        "id": "Camp033",
        "name": "부산대_부산캠퍼스",
        "oYear": "1954",
        "hq": "소재",
        "aDivision": "영남권",
        "aUnit": "부산"
      }
    },
    {
      "type": "Feature",
      "geometry": {
        "type": "Point",
        "coordinates": [
          129.078751,
          35.267458
        ]
      },
      "properties": {
        "no": "34",
        "class": "Campus",
        "id": "Camp034",
        "name": "부산외국어대_본교",
        "oYear": "2014",
        "hq": "소재",
        "aDivision": "영남권",
        "aUnit": "부산"
      }
    },
    {
      "type": "Feature",
      "geometry": {
        "type": "Point",
        "coordinates": [
          127.106518,
          37.642491
        ]
      },
      "properties": {
        "no": "35",
        "class": "Campus",
        "id": "Camp035",
        "name": "삼육대_본교",
        "oYear": "1949",
        "hq": "소재",
        "aDivision": "수도권",
        "aUnit": "서울"
      }
    },
    {
      "type": "Feature",
      "geometry": {
        "type": "Point",
        "coordinates": [
          127.179198,
          36.833661
        ]
      },
      "properties": {
        "no": "36",
        "class": "Campus",
        "id": "Camp036",
        "name": "상명대_천안캠퍼스",
        "oYear": "1985",
        "hq": "부재",
        "aDivision": "충청권",
        "aUnit": "천안시"
      }
    },
    {
      "type": "Feature",
      "geometry": {
        "type": "Point",
        "coordinates": [
          126.940916,
          37.550961
        ]
      },
      "properties": {
        "no": "37",
        "class": "Campus",
        "id": "Camp037",
        "name": "서강대_본교",
        "oYear": "1960",
        "hq": "소재",
        "aDivision": "수도권",
        "aUnit": "서울"
      }
    },
    {
      "type": "Feature",
      "geometry": {
        "type": "Point",
        "coordinates": [
          126.957202,
          37.464933
        ]
      },
      "properties": {
        "no": "38",
        "class": "Campus",
        "id": "Camp038",
        "name": "서울대_관악캠퍼스",
        "oYear": "1975",
        "hq": "소재",
        "aDivision": "수도권",
        "aUnit": "서울"
      }
    },
    {
      "type": "Feature",
      "geometry": {
        "type": "Point",
        "coordinates": [
          127.058799,
          37.583849
        ]
      },
      "properties": {
        "no": "39",
        "class": "Campus",
        "id": "Camp039",
        "name": "서울시립대_본교",
        "oYear": "1937",
        "hq": "소재",
        "aDivision": "수도권",
        "aUnit": "서울"
      }
    },
    {
      "type": "Feature",
      "geometry": {
        "type": "Point",
        "coordinates": [
          126.788997,
          37.479467
        ]
      },
      "properties": {
        "no": "40",
        "class": "Campus",
        "id": "Camp040",
        "name": "서울신학대_본교",
        "oYear": "1974",
        "hq": "소재",
        "aDivision": "수도권",
        "aUnit": "부천"
      }
    },
    {
      "type": "Feature",
      "geometry": {
        "type": "Point",
        "coordinates": [
          127.09051,
          37.628155
        ]
      },
      "properties": {
        "no": "41",
        "class": "Campus",
        "id": "Camp041",
        "name": "서울여자대_본교",
        "oYear": "1961",
        "hq": "소재",
        "aDivision": "수도권",
        "aUnit": "서울"
      }
    },
    {
      "type": "Feature",
      "geometry": {
        "type": "Point",
        "coordinates": [
          127.074981,
          36.798976
        ]
      },
      "properties": {
        "no": "42",
        "class": "Campus",
        "id": "Camp042",
        "name": "선문대_아산캠퍼스",
        "oYear": "1990",
        "hq": "소재",
        "aDivision": "충청권",
        "aUnit": "아산시"
      }
    },
    {
      "type": "Feature",
      "geometry": {
        "type": "Point",
        "coordinates": [
          126.928164,
          37.379357
        ]
      },
      "properties": {
        "no": "43",
        "class": "Campus",
        "id": "Camp043",
        "name": "성결대_본교",
        "oYear": "1975",
        "hq": "소재",
        "aDivision": "수도권",
        "aUnit": "안양"
      }
    },
    {
      "type": "Feature",
      "geometry": {
        "type": "Point",
        "coordinates": [
          126.825168,
          37.487752
        ]
      },
      "properties": {
        "no": "44",
        "class": "Campus",
        "id": "Camp044",
        "name": "성공회대_본교",
        "oYear": "1957",
        "hq": "소재",
        "aDivision": "수도권",
        "aUnit": "서울"
      }
    },
    {
      "type": "Feature",
      "geometry": {
        "type": "Point",
        "coordinates": [
          126.9936,
          37.588218
        ]
      },
      "properties": {
        "no": "45",
        "class": "Campus",
        "id": "Camp045",
        "name": "성균관대_인문사회과학캠퍼스",
        "oYear": "1398",
        "hq": "소재",
        "aDivision": "수도권",
        "aUnit": "서울"
      }
    },
    {
      "type": "Feature",
      "geometry": {
        "type": "Point",
        "coordinates": [
          127.022248,
          37.5918
        ]
      },
      "properties": {
        "no": "46",
        "class": "Campus",
        "id": "Camp046",
        "name": "성신여자대_돈암수정캠퍼스",
        "oYear": "1944",
        "hq": "소재",
        "aDivision": "수도권",
        "aUnit": "서울"
      }
    },
    {
      "type": "Feature",
      "geometry": {
        "type": "Point",
        "coordinates": [
          128.194428,
          37.173257
        ]
      },
      "properties": {
        "no": "47",
        "class": "Campus",
        "id": "Camp047",
        "name": "세명대_본교",
        "oYear": "1991",
        "hq": "소재",
        "aDivision": "충청권",
        "aUnit": "제천시"
      }
    },
    {
      "type": "Feature",
      "geometry": {
        "type": "Point",
        "coordinates": [
          126.976926,
          37.209227
        ]
      },
      "properties": {
        "no": "48",
        "class": "Campus",
        "id": "Camp048",
        "name": "수원대_본교",
        "oYear": "1982",
        "hq": "소재",
        "aDivision": "수도권",
        "aUnit": "화성시"
      }
    },
    {
      "type": "Feature",
      "geometry": {
        "type": "Point",
        "coordinates": [
          126.964685,
          37.546522
        ]
      },
      "properties": {
        "no": "49",
        "class": "Campus",
        "id": "Camp049",
        "name": "숙명여자대_본교",
        "oYear": "1939",
        "hq": "소재",
        "aDivision": "수도권",
        "aUnit": "서울"
      }
    },
    {
      "type": "Feature",
      "geometry": {
        "type": "Point",
        "coordinates": [
          126.93322,
          36.768303
        ]
      },
      "properties": {
        "no": "50",
        "class": "Campus",
        "id": "Camp050",
        "name": "순천향대_본교",
        "oYear": "1978",
        "hq": "소재",
        "aDivision": "충청권",
        "aUnit": "아산시"
      }
    },
    {
      "type": "Feature",
      "geometry": {
        "type": "Point",
        "coordinates": [
          126.9572,
          37.496359
        ]
      },
      "properties": {
        "no": "51",
        "class": "Campus",
        "id": "Camp051",
        "name": "숭실대_본교",
        "oYear": "1957",
        "hq": "소재",
        "aDivision": "수도권",
        "aUnit": "서울"
      }
    },
    {
      "type": "Feature",
      "geometry": {
        "type": "Point",
        "coordinates": [
          126.920597,
          37.392176
        ]
      },
      "properties": {
        "no": "52",
        "class": "Campus",
        "id": "Camp052",
        "name": "안양대_안양캠퍼스",
        "oYear": "1980",
        "hq": "소재",
        "aDivision": "수도권",
        "aUnit": "안양시"
      }
    },
    {
      "type": "Feature",
      "geometry": {
        "type": "Point",
        "coordinates": [
          126.938717,
          37.566436
        ]
      },
      "properties": {
        "no": "53",
        "class": "Campus",
        "id": "Camp053",
        "name": "연세대_신촌캠퍼스",
        "oYear": "1957",
        "hq": "소재",
        "aDivision": "수도권",
        "aUnit": "서울"
      }
    },
    {
      "type": "Feature",
      "geometry": {
        "type": "Point",
        "coordinates": [
          128.757593,
          35.832863
        ]
      },
      "properties": {
        "no": "54",
        "class": "Campus",
        "id": "Camp054",
        "name": "영남대_경산캠퍼스",
        "oYear": "1972",
        "hq": "소재",
        "aDivision": "영남권",
        "aUnit": "경산시"
      }
    },
    {
      "type": "Feature",
      "geometry": {
        "type": "Point",
        "coordinates": [
          127.168228,
          37.226797
        ]
      },
      "properties": {
        "no": "55",
        "class": "Campus",
        "id": "Camp055",
        "name": "용인대_본교",
        "oYear": "1985",
        "hq": "소재",
        "aDivision": "수도권",
        "aUnit": "용인시"
      }
    },
    {
      "type": "Feature",
      "geometry": {
        "type": "Point",
        "coordinates": [
          129.25624,
          35.543798
        ]
      },
      "properties": {
        "no": "56",
        "class": "Campus",
        "id": "Camp056",
        "name": "울산대_본교",
        "oYear": "1970",
        "hq": "소재",
        "aDivision": "영남권",
        "aUnit": "울산"
      }
    },
    {
      "type": "Feature",
      "geometry": {
        "type": "Point",
        "coordinates": [
          126.946828,
          37.561926
        ]
      },
      "properties": {
        "no": "57",
        "class": "Campus",
        "id": "Camp057",
        "name": "이화여자대_신촌캠퍼스",
        "oYear": "1935",
        "hq": "소재",
        "aDivision": "수도권",
        "aUnit": "서울"
      }
    },
    {
      "type": "Feature",
      "geometry": {
        "type": "Point",
        "coordinates": [
          126.632165,
          37.375047
        ]
      },
      "properties": {
        "no": "58",
        "class": "Campus",
        "id": "Camp058",
        "name": "인천대_송도캠퍼스",
        "oYear": "2009",
        "hq": "소재",
        "aDivision": "수도권",
        "aUnit": "인천"
      }
    },
    {
      "type": "Feature",
      "geometry": {
        "type": "Point",
        "coordinates": [
          126.653509,
          37.450005
        ]
      },
      "properties": {
        "no": "59",
        "class": "Campus",
        "id": "Camp059",
        "name": "인하대_용현캠퍼스",
        "oYear": "1954",
        "hq": "소재",
        "aDivision": "수도권",
        "aUnit": "인천"
      }
    },
    {
      "type": "Feature",
      "geometry": {
        "type": "Point",
        "coordinates": [
          126.907127,
          35.175579
        ]
      },
      "properties": {
        "no": "60",
        "class": "Campus",
        "id": "Camp060",
        "name": "전남대_광주캠퍼스",
        "oYear": "1909",
        "hq": "소재",
        "aDivision": "호남권",
        "aUnit": "광주"
      }
    },
    {
      "type": "Feature",
      "geometry": {
        "type": "Point",
        "coordinates": [
          127.699469,
          34.774865
        ]
      },
      "properties": {
        "no": "61",
        "class": "Campus",
        "id": "Camp061",
        "name": "전남대_여수캠퍼스",
        "oYear": "2006",
        "hq": "부재",
        "aDivision": "호남권",
        "aUnit": "여수시"
      }
    },
    {
      "type": "Feature",
      "geometry": {
        "type": "Point",
        "coordinates": [
          127.130008,
          35.846887
        ]
      },
      "properties": {
        "no": "62",
        "class": "Campus",
        "id": "Camp062",
        "name": "전북대_전주캠퍼스",
        "oYear": "1954",
        "hq": "소재",
        "aDivision": "호남권",
        "aUnit": "전주시"
      }
    },
    {
      "type": "Feature",
      "geometry": {
        "type": "Point",
        "coordinates": [
          127.090107,
          35.813888
        ]
      },
      "properties": {
        "no": "63",
        "class": "Campus",
        "id": "Camp063",
        "name": "전주대_본교",
        "oYear": "1981",
        "hq": "소재",
        "aDivision": "호남권",
        "aUnit": "전주시"
      }
    },
    {
      "type": "Feature",
      "geometry": {
        "type": "Point",
        "coordinates": [
          126.562047,
          33.455934
        ]
      },
      "properties": {
        "no": "64",
        "class": "Campus",
        "id": "Camp064",
        "name": "제주대_아라캠퍼스",
        "oYear": "1979",
        "hq": "소재",
        "aDivision": "제주권",
        "aUnit": "제주시"
      }
    },
    {
      "type": "Feature",
      "geometry": {
        "type": "Point",
        "coordinates": [
          126.932104,
          35.141482
        ]
      },
      "properties": {
        "no": "65",
        "class": "Campus",
        "id": "Camp065",
        "name": "조선대_본교",
        "oYear": "1946",
        "hq": "소재",
        "aDivision": "호남권",
        "aUnit": "광주"
      }
    },
    {
      "type": "Feature",
      "geometry": {
        "type": "Point",
        "coordinates": [
          126.956863,
          37.504582
        ]
      },
      "properties": {
        "no": "66",
        "class": "Campus",
        "id": "Camp066",
        "name": "중앙대_서울캠퍼스",
        "oYear": "1938",
        "hq": "소재",
        "aDivision": "수도권",
        "aUnit": "서울"
      }
    },
    {
      "type": "Feature",
      "geometry": {
        "type": "Point",
        "coordinates": [
          128.599948,
          35.24497
        ]
      },
      "properties": {
        "no": "67",
        "class": "Campus",
        "id": "Camp067",
        "name": "창신대_본교",
        "oYear": "2003",
        "hq": "소재",
        "aDivision": "영남권",
        "aUnit": "창원시"
      }
    },
    {
      "type": "Feature",
      "geometry": {
        "type": "Point",
        "coordinates": [
          127.346536,
          36.366961
        ]
      },
      "properties": {
        "no": "68",
        "class": "Campus",
        "id": "Camp068",
        "name": "충남대_대덕캠퍼스",
        "oYear": "1978",
        "hq": "소재",
        "aDivision": "충청권",
        "aUnit": "대전"
      }
    },
    {
      "type": "Feature",
      "geometry": {
        "type": "Point",
        "coordinates": [
          127.456317,
          36.628097
        ]
      },
      "properties": {
        "no": "69",
        "class": "Campus",
        "id": "Camp069",
        "name": "충북대_개신캠퍼스",
        "oYear": "1956",
        "hq": "소재",
        "aDivision": "충청권",
        "aUnit": "청주시"
      }
    },
    {
      "type": "Feature",
      "geometry": {
        "type": "Point",
        "coordinates": [
          127.132923,
          36.994868
        ]
      },
      "properties": {
        "no": "70",
        "class": "Campus",
        "id": "Camp070",
        "name": "평택대_본교",
        "oYear": "1981",
        "hq": "소재",
        "aDivision": "수도권",
        "aUnit": "평택시"
      }
    },
    {
      "type": "Feature",
      "geometry": {
        "type": "Point",
        "coordinates": [
          127.358209,
          36.60842
        ]
      },
      "properties": {
        "no": "71",
        "class": "Campus",
        "id": "Camp071",
        "name": "한국교원대_본교",
        "oYear": "1984",
        "hq": "소재",
        "aDivision": "충청권",
        "aUnit": "청주시"
      }
    },
    {
      "type": "Feature",
      "geometry": {
        "type": "Point",
        "coordinates": [
          127.871726,
          36.969827
        ]
      },
      "properties": {
        "no": "72",
        "class": "Campus",
        "id": "Camp072",
        "name": "국립한국교통대_충주캠퍼스",
        "oYear": "2012",
        "hq": "소재",
        "aDivision": "충청권",
        "aUnit": "충주시"
      }
    },
    {
      "type": "Feature",
      "geometry": {
        "type": "Point",
        "coordinates": [
          127.058806,
          37.597438
        ]
      },
      "properties": {
        "no": "73",
        "class": "Campus",
        "id": "Camp073",
        "name": "한국외국어대_서울캠퍼스",
        "oYear": "1957",
        "hq": "소재",
        "aDivision": "수도권",
        "aUnit": "서울"
      }
    },
    {
      "type": "Feature",
      "geometry": {
        "type": "Point",
        "coordinates": [
          127.421017,
          36.35466
        ]
      },
      "properties": {
        "no": "74",
        "class": "Campus",
        "id": "Camp074",
        "name": "한남대_오정캠퍼스",
        "oYear": "1959",
        "hq": "소재",
        "aDivision": "충청권",
        "aUnit": "대전"
      }
    },
    {
      "type": "Feature",
      "geometry": {
        "type": "Point",
        "coordinates": [
          127.737815,
          37.883953
        ]
      },
      "properties": {
        "no": "75",
        "class": "Campus",
        "id": "Camp075",
        "name": "한림대_본교",
        "oYear": "1982",
        "hq": "소재",
        "aDivision": "강원권",
        "aUnit": "춘천시"
      }
    },
    {
      "type": "Feature",
      "geometry": {
        "type": "Point",
        "coordinates": [
          126.584718,
          36.690749
        ]
      },
      "properties": {
        "no": "76",
        "class": "Campus",
        "id": "Camp076",
        "name": "한서대_서산캠퍼스",
        "oYear": "1991",
        "hq": "소재",
        "aDivision": "충청권",
        "aUnit": "서산시"
      }
    },
    {
      "type": "Feature",
      "geometry": {
        "type": "Point",
        "coordinates": [
          126.952387,
          37.346908
        ]
      },
      "properties": {
        "no": "77",
        "class": "Campus",
        "id": "Camp077",
        "name": "한세대_본교",
        "oYear": "1979",
        "hq": "소재",
        "aDivision": "수도권",
        "aUnit": "군포시"
      }
    },
    {
      "type": "Feature",
      "geometry": {
        "type": "Point",
        "coordinates": [
          127.022599,
          37.193337
        ]
      },
      "properties": {
        "no": "78",
        "class": "Campus",
        "id": "Camp078",
        "name": "한신대_경기캠퍼스",
        "oYear": "1980",
        "hq": "소재",
        "aDivision": "수도권",
        "aUnit": "오산시"
      }
    },
    {
      "type": "Feature",
      "geometry": {
        "type": "Point",
        "coordinates": [
          127.045431,
          37.557176
        ]
      },
      "properties": {
        "no": "79",
        "class": "Campus",
        "id": "Camp079",
        "name": "한양대_서울캠퍼스",
        "oYear": "1953",
        "hq": "소재",
        "aDivision": "수도권",
        "aUnit": "서울"
      }
    },
    {
      "type": "Feature",
      "geometry": {
        "type": "Point",
        "coordinates": [
          126.95333,
          37.213297
        ]
      },
      "properties": {
        "no": "80",
        "class": "Campus",
        "id": "Camp080",
        "name": "협성대_본교",
        "oYear": "1988",
        "hq": "소재",
        "aDivision": "수도권",
        "aUnit": "화성시"
      }
    },
    {
      "type": "Feature",
      "geometry": {
        "type": "Point",
        "coordinates": [
          127.183352,
          36.827936
        ]
      },
      "properties": {
        "no": "81",
        "class": "Campus",
        "id": "Camp081",
        "name": "호서대_천안캠퍼스",
        "oYear": "1978",
        "hq": "부재",
        "aDivision": "충청권",
        "aUnit": "천안시"
      }
    }
  ]
}
